NORAD_CAT_ID,OBJECT_NAME,OBJECT_TYPE,EPOCH,MEAN_MOTION,ECCENTRICITY,INCLINATION,RA_OF_ASC_NODE,ARG_OF_PERICENTER,MEAN_ANOMALY,BSTAR,MEAN_MOTION_DOT,MEAN_MOTION_DDOT,TLE_LINE0,TLE_LINE1,TLE_LINE2,SEMIMAJOR_AXIS,PERIOD,APOGEE,PERIGEE,DECAYED
53899.0,STARLINK-5042,PAYLOAD,2023-08-28 01:57:57,15.08845002,0.0001438,53.216,154.6035,77.1135,283.0018,0.00045576,6.974e-05,0.0,0 STARLINK-5042,1 53899U 22119P   23240.08191226  .00006974  00000-0  45576-3 0  9995,2 53899  53.2160 154.6035 0001438  77.1135 283.0018 15.08845002 51682,6917.865,95.437,540.725,538.735,0.0
53899.0,STARLINK-5042,PAYLOAD,2023-08-28 11:30:16,15.08841515,0.0001361,53.2148,152.8191,90.0016,270.1132,0.00048172,7.387e-05,0.0,0 STARLINK-5042,1 53899U 22119P   23240.47935676  .00007387  00000-0  48172-3 0  9997,2 53899  53.2148 152.8191 0001361  90.0016 270.1132 15.08841515 51744,6917.876,95.437,540.682,538.799,0.0
53899.0,STARLINK-5042,PAYLOAD,2023-08-29 11:21:03,15.08841473,0.0001477,53.2162,148.3592,81.654,278.462,0.00057971,8.951e-05,0.0,0 STARLINK-5042,1 53899U 22119P   23241.47296089  .00008951  00000-0  57971-3 0  9991,2 53899  53.2162 148.3592 0001477  81.6540 278.4620 15.08841473 51893,6917.876,95.437,540.763,538.719,0.0
53899.0,STARLINK-5042,PAYLOAD,2023-08-30 00:04:09,15.08839175,0.0001448,53.2165,145.9798,87.1452,272.9706,0.00044404,6.786e-05,0.0,0 STARLINK-5042,1 53899U 22119P   23242.00288360  .00006786  00000-0  44404-3 0  9995,2 53899  53.2165 145.9798 0001448  87.1452 272.9706 15.08839175 51977,6917.883,95.438,540.75,538.746,0.0
53899.0,STARLINK-5042,PAYLOAD,2023-08-30 11:11:51,15.0884495,0.0001238,53.2164,143.8997,77.6415,282.4715,0.00065194,0.00010104,0.0,0 STARLINK-5042,1 53899U 22119P   23242.46656331  .00010104  00000-0  65194-3 0  9990,2 53899  53.2164 143.8997 0001238  77.6415 282.4715 15.08844950 52462,6917.865,95.437,540.587,538.874,0.0
53899.0,STARLINK-5042,PAYLOAD,2023-08-30 23:54:55,15.08855586,0.0001428,53.2169,141.5202,85.1325,274.9831,0.00079559,0.00012402,0.0,0 STARLINK-5042,1 53899U 22119P   23242.99648095  .00012402  00000-0  79559-3 0  9999,2 53899  53.2169 141.5202 0001428  85.1325 274.9831 15.08855586 52547,6917.833,95.437,540.686,538.71,0.0
53899.0,STARLINK-5042,PAYLOAD,2023-08-31 23:45:42,15.08884182,8.36e-05,53.2166,137.0667,145.7102,214.3944,0.0016057,0.0002539,0.0,0 STARLINK-5042,1 53899U 22119P   23243.99007284  .00025390  00000-0  16057-2 0  9992,2 53899  53.2166 137.0667 0000836 145.7102 214.3944 15.08884182 52274,6917.745,95.435,540.189,539.032,0.0
53899.0,STARLINK-5042,PAYLOAD,2023-09-01 02:56:29,15.08845828,3.35e-05,53.2161,136.4713,51.5407,308.5615,-8.3029e-05,-1.609e-05,0.0,0 STARLINK-5042,1 53899U 22119P   23244.12255800 -.00001609  00000-0 -83029-4 0  9991,2 53899  53.2161 136.4713 0000335  51.5407 308.5615 15.08845828 52297,6917.863,95.437,539.959,539.496,0.0
53899.0,STARLINK-5042,PAYLOAD,2023-09-02 09:08:48,15.08840136,0.0001257,53.2155,130.8138,76.2606,283.8526,0.0002991,4.476e-05,0.0,0 STARLINK-5042,1 53899U 22119P   23245.38112222  .00004476  00000-0  29910-3 0  9991,2 53899  53.2155 130.8138 0001257  76.2606 283.8526 15.08840136 52482,6917.88,95.438,540.615,538.875,0.0
53899.0,STARLINK-5042,PAYLOAD,2023-09-03 08:59:36,15.08835771,0.0001385,53.2162,126.3544,83.8184,276.2966,0.00031048,4.656e-05,0.0,0 STARLINK-5042,1 53899U 22119P   23246.37472732  .00004656  00000-0  31048-3 0  9991,2 53899  53.2162 126.3544 0001385  83.8184 276.2966 15.08835771 52638,6917.893,95.438,540.716,538.8,0.0
53899.0,STARLINK-5042,PAYLOAD,2023-09-04 08:50:23,15.08838567,0.0001399,53.2165,121.8938,86.1482,273.967,0.00013494,1.86e-05,0.0,0 STARLINK-5042,1 53899U 22119P   23247.36832890  .00001860  00000-0  13494-3 0  9995,2 53899  53.2165 121.8938 0001399  86.1482 273.9670 15.08838567 53206,6917.885,95.438,540.718,538.782,0.0
53899.0,STARLINK-5042,PAYLOAD,2023-09-05 00:44:14,15.08844053,0.0001345,53.2161,118.9203,85.2869,274.8276,0.00017207,2.452e-05,0.0,0 STARLINK-5042,1 53899U 22119P   23248.03072732  .00002452  00000-0  17207-3 0  9995,2 53899  53.2161 118.9203 0001345  85.2869 274.8276 15.08844053 53304,6917.868,95.437,540.663,538.803,0.0
53899.0,STARLINK-5042,PAYLOAD,2023-09-06 00:35:02,15.0884362,0.000149,53.2163,114.4588,89.5812,270.535,0.0001207,1.634e-05,0.0,0 STARLINK-5042,1 53899U 22119P   23249.02432907  .00001634  00000-0  12070-3 0  9993,2 53899  53.2163 114.4588 0001490  89.5812 270.5350 15.08843620 53034,6917.869,95.437,540.765,538.704,0.0
53899.0,STARLINK-5042,PAYLOAD,2023-09-06 21:15:02,15.08852085,0.0001484,53.2161,110.5934,87.8063,272.3099,0.0002359,3.47e-05,0.0,0 STARLINK-5042,1 53899U 22119P   23249.88544379  .00003470  00000-0  23590-3 0  9993,2 53899  53.2161 110.5934 0001484  87.8063 272.3099 15.08852085 53581,6917.843,95.437,540.735,538.682,0.0
53899.0,STARLINK-5042,PAYLOAD,2023-09-07 00:25:48,15.08854396,0.0001336,53.2163,109.9984,84.037,276.0775,0.00022285,3.262e-05,0.0,0 STARLINK-5042,1 53899U 22119P   23250.01792196  .00003262  00000-0  22285-3 0  9991,2 53899  53.2163 109.9984 0001336  84.0370 276.0775 15.08854396 53608,6917.836,95.437,540.626,538.777,0.0
53899.0,STARLINK-5042,PAYLOAD,2023-09-07 22:41:12,15.08843582,0.0001495,53.2157,105.8357,86.4139,273.7024,8.1674e-05,1.012e-05,0.0,0 STARLINK-5042,1 53899U 22119P   23250.94528580  .00001012  00000-0  81674-4 0  9996,2 53899  53.2157 105.8357 0001495  86.4139 273.7024 15.08843582 53320,6917.869,95.437,540.769,538.7,0.0
53899.0,STARLINK-5042,PAYLOAD,2023-09-08 19:21:13,15.08838129,0.0001267,53.2165,101.971,84.5044,275.6092,-3.5037e-05,-8.45e-06,0.0,0 STARLINK-5042,1 53899U 22119P   23251.80640857 -.00000845  00000-0 -35037-4 0  9991,2 53899  53.2165 101.9710 0001267  84.5044 275.6092 15.08838129 53451,6917.886,95.438,540.628,538.875,0.0
53899.0,STARLINK-5042,PAYLOAD,2023-09-08 20:56:36,15.08842783,0.0001196,53.2165,101.6729,87.3237,272.7892,-9.3561e-05,-1.777e-05,0.0,0 STARLINK-5042,1 53899U 22119P   23251.87264627 -.00001777  00000-0 -93561-4 0  9996,2 53899  53.2165 101.6729 0001196  87.3237 272.7892 15.08842783 53888,6917.872,95.437,540.564,538.91,0.0
53899.0,STARLINK-5042,PAYLOAD,2023-09-09 06:28:55,15.08828403,9.96e-05,53.2172,99.8874,114.7761,245.3335,0.00018576,2.669e-05,0.0,0 STARLINK-5042,1 53899U 22119P   23252.27009216  .00002669  00000-0  18576-3 0  9993,2 53899  53.2172  99.8874 0000996 114.7761 245.3335 15.08828403 53947,6917.916,95.438,540.47,539.092,0.0
53899.0,STARLINK-5042,PAYLOAD,2023-09-09 23:58:10,15.08837727,0.00012,53.2171,96.6174,90.0153,270.0977,0.00017309,2.468e-05,0.0,0 STARLINK-5042,1 53899U 22119P   23252.99873123  .00002468  00000-0  17309-3 0  9998,2 53899  53.2171  96.6174 0001200  90.0153 270.0977 15.08837727 53636,6917.887,95.438,540.582,538.922,0.0
53899.0,STARLINK-5042,PAYLOAD,2023-09-11 06:10:30,15.08839744,0.0001222,53.2165,90.9671,84.8152,275.298,8.5831e-05,1.078e-05,0.0,0 STARLINK-5042,1 53899U 22119P   23254.25729412  .00001078  00000-0  85831-4 0  9992,2 53899  53.2165  90.9671 0001222  84.8152 275.2980 15.08839744 53825,6917.881,95.438,540.592,538.901,0.0
53899.0,STARLINK-5042,PAYLOAD,2023-09-11 12:32:02,15.0884036,0.0001327,53.2166,89.7774,86.2781,273.8363,8.8007e-05,1.113e-05,0.0,0 STARLINK-5042,1 53899U 22119P   23254.52225367  .00001113  00000-0  88007-4 0  9990,2 53899  53.2166  89.7774 0001327  86.2781 273.8363 15.08840360 54282,6917.879,95.438,540.662,538.826,0.0
53899.0,STARLINK-5042,PAYLOAD,2023-09-11 20:28:58,15.08849085,0.0001198,53.2163,88.2905,87.5772,272.5358,0.00019644,2.841e-05,0.0,0 STARLINK-5042,1 53899U 22119P   23254.85344940  .00002841  00000-0  19644-3 0  9994,2 53899  53.2163  88.2905 0001198  87.5772 272.5358 15.08849085 53911,6917.853,95.437,540.546,538.889,0.0
53899.0,STARLINK-5042,PAYLOAD,2023-09-12 12:22:49,15.08839513,0.0001348,53.2172,85.3191,83.2402,276.8744,8.6438e-05,1.088e-05,0.0,0 STARLINK-5042,1 53899U 22119P   23255.51585393  .00001088  00000-0  86438-4 0  9995,2 53899  53.2172  85.3191 0001348  83.2402 276.8744 15.08839513 54435,6917.882,95.438,540.679,538.814,0.0
53899.0,STARLINK-5042,PAYLOAD,2023-09-12 17:08:59,15.08843217,0.0001406,53.2163,84.4263,85.3709,274.7444,8.3343e-05,1.039e-05,0.0,0 STARLINK-5042,1 53899U 22119P   23255.71457195  .00001039  00000-0  83343-4 0  9993,2 53899  53.2163  84.4263 0001406  85.3709 274.7444 15.08843217 54040,6917.871,95.437,540.708,538.763,0.0
53899.0,STARLINK-5042,PAYLOAD,2023-09-12 20:19:45,15.08846824,0.000139,53.2166,83.8303,82.6249,277.4901,0.00010911,1.449e-05,0.0,0 STARLINK-5042,1 53899U 22119P   23255.84705014  .00001449  00000-0  10911-3 0  9998,2 53899  53.2166  83.8303 0001390  82.6249 277.4901 15.08846824 54485,6917.86,95.437,540.686,538.763,0.0
53899.0,STARLINK-5042,PAYLOAD,2023-09-13 12:13:36,15.08848556,0.0001356,53.2165,80.8588,83.9715,276.1432,0.00013588,1.876e-05,0.0,0 STARLINK-5042,1 53899U 22119P   23256.50944756  .00001876  00000-0  13588-3 0  9997,2 53899  53.2165  80.8588 0001356  83.9715 276.1432 15.08848556 54580,6917.854,95.437,540.657,538.781,0.0
53899.0,STARLINK-5042,PAYLOAD,2023-09-13 18:35:08,15.08848205,0.0001449,53.2169,79.6693,83.6248,276.4909,0.0001087,1.443e-05,0.0,0 STARLINK-5042,1 53899U 22119P   23256.77440725  .00001443  00000-0  10870-3 0  9994,2 53899  53.2169  79.6693 0001449  83.6248 276.4909 15.08848205 54200,6917.855,95.437,540.723,538.718,0.0
53899.0,STARLINK-5042,PAYLOAD,2023-09-14 12:04:24,15.08833942,0.0001609,53.2172,76.3974,79.3855,280.7318,2.7744e-05,1.53e-06,0.0,0 STARLINK-5042,1 53899U 22119P   23257.50305665  .00000153  00000-0  27744-4 0  9995,2 53899  53.2172  76.3974 0001609  79.3855 280.7318 15.08833942 54736,6917.899,95.438,540.877,538.651,0.0
53899.0,STARLINK-5042,PAYLOAD,2023-09-14 18:25:57,15.08826482,0.0001498,53.2169,75.2084,80.1066,280.0095,-0.00012212,-2.23e-05,0.0,0 STARLINK-5042,1 53899U 22119P   23257.76802195 -.00002230  00000-0 -12212-3 0  9996,2 53899  53.2169  75.2084 0001498  80.1066 280.0095 15.08826482 54356,6917.922,95.438,540.823,538.75,0.0
